NORAD_CAT_ID,OBJECT_NAME,OBJECT_TYPE,EPOCH,MEAN_MOTION,ECCENTRICITY,INCLINATION,RA_OF_ASC_NODE,ARG_OF_PERICENTER,MEAN_ANOMALY,BSTAR,MEAN_MOTION_DOT,MEAN_MOTION_DDOT,TLE_LINE0,TLE_LINE1,TLE_LINE2,SEMIMAJOR_AXIS,PERIOD,APOGEE,PERIGEE,DECAYED
54199.0,STARLINK-5244,PAYLOAD,2024-05-14 04:48:24,15.08841514,0.0001406,53.2161,97.0507,77.1102,283.0047,0.00090904,0.0001421,0.0,0 STARLINK-5244,1 54199U 22141AU  24135.20028482  .00014210  00000-0  90904-3 0  9992,2 54199  53.2161  97.0507 0001406  77.1102 283.0047 15.08841514 85919,6917.876,95.437,540.713,538.768,0.0
54199.0,STARLINK-5244,PAYLOAD,2024-05-14 06:23:47,15.08844664,0.0001445,53.2161,96.7532,76.5766,283.5387,0.0009073,0.00014183,0.0,0 STARLINK-5244,1 54199U 22141AU  24135.26652390  .00014183  00000-0  90730-3 0  9995,2 54199  53.2161  96.7532 0001445  76.5766 283.5387 15.08844664 85691,6917.866,95.437,540.731,538.732,0.0
54199.0,STARLINK-5244,PAYLOAD,2024-05-15 04:39:09,15.08883469,0.0001468,53.2159,92.5877,74.4218,285.6936,0.00053418,8.234e-05,0.0,0 STARLINK-5244,1 54199U 22141AU  24136.19385627  .00008234  00000-0  53418-3 0  9996,2 54199  53.2159  92.5877 0001468  74.4218 285.6936 15.08883469 86069,6917.748,95.435,540.628,538.597,0.0
54199.0,STARLINK-5244,PAYLOAD,2024-05-15 20:33:00,15.08857276,0.0001523,53.2154,89.6163,98.2869,261.8296,-8.2428e-05,-1.6e-05,0.0,0 STARLINK-5244,1 54199U 22141AU  24136.85625424 -.00001600  00000-0 -82428-4 0  9997,2 54199  53.2154  89.6163 0001523  98.2869 261.8296 15.08857276 86160,6917.828,95.436,540.746,538.639,0.0
54199.0,STARLINK-5244,PAYLOAD,2024-05-16 14:02:14,15.08853615,0.0001702,53.2157,86.3449,89.0821,271.0366,7.2957e-05,8.74e-06,0.0,0 STARLINK-5244,1 54199U 22141AU  24137.58489290  .00000874  00000-0  72957-4 0  9993,2 54199  53.2157  86.3449 0001702  89.0821 271.0366 15.08853615 86040,6917.839,95.437,540.881,538.526,0.0
54199.0,STARLINK-5244,PAYLOAD,2024-05-16 20:23:47,15.08847832,0.0001827,53.2155,85.1555,89.6235,270.4966,2.8056e-05,1.58e-06,0.0,0 STARLINK-5244,1 54199U 22141AU  24137.84985314  .00000158  00000-0  28056-4 0  9996,2 54199  53.2155  85.1555 0001827  89.6235 270.4966 15.08847832 86319,6917.856,95.437,540.985,538.458,0.0
54199.0,STARLINK-5244,PAYLOAD,2024-05-17 13:53:02,15.08837622,0.0001631,53.2169,81.8819,104.8015,255.3158,0.00011725,1.578e-05,0.0,0 STARLINK-5244,1 54199U 22141AU  24138.57849794  .00001578  00000-0  11725-3 0  9999,2 54199  53.2169  81.8819 0001631 104.8015 255.3158 15.08837622 86196,6917.888,95.438,540.881,538.624,0.0
54199.0,STARLINK-5244,PAYLOAD,2024-05-18 02:36:06,15.08865583,0.0001467,53.2173,79.503,100.6768,259.4389,0.0010009,0.00015688,0.0,0 STARLINK-5244,1 54199U 22141AU  24139.10841033  .00015688  00000-0  10009-2 0  9997,2 54199  53.2173  79.5030 0001467 100.6768 259.4389 15.08865583 86509,6917.802,95.436,540.682,538.652,0.0
54199.0,STARLINK-5244,PAYLOAD,2024-05-18 20:05:20,15.08857696,0.0001276,53.2151,76.2329,86.4196,273.6942,0.0006427,9.96e-05,0.0,0 STARLINK-5244,1 54199U 22141AU  24139.83704850  .00009960  00000-0  64270-3 0  9998,2 54199  53.2151  76.2329 0001276  86.4196 273.6942 15.08857696 86615,6917.826,95.436,540.574,538.809,0.0
54199.0,STARLINK-5244,PAYLOAD,2024-05-19 02:26:53,15.08848415,0.0001077,53.2152,75.043,111.8045,248.3061,0.0001574,2.219e-05,0.0,0 STARLINK-5244,1 54199U 22141AU  24140.10200682  .00002219  00000-0  15740-3 0  9992,2 54199  53.2152  75.0430 0001077 111.8045 248.3061 15.08848415 86655,6917.855,95.437,540.465,538.975,0.0
54199.0,STARLINK-5244,PAYLOAD,2024-05-19 19:56:09,15.08820583,0.0001229,53.2172,71.7714,104.3272,255.7857,-0.00020686,-3.577e-05,0.0,0 STARLINK-5244,1 54199U 22141AU  24140.83066325 -.00003577  00000-0 -20686-3 0  9991,2 54199  53.2172  71.7714 0001229 104.3272 255.7857 15.08820583 86766,6917.94,95.439,540.655,538.955,0.0
54199.0,STARLINK-5244,PAYLOAD,2024-05-20 00:42:19,15.08813148,0.0001116,53.2171,70.8796,109.551,250.5602,-0.00026327,-4.472e-05,0.0,0 STARLINK-5244,1 54199U 22141AU  24141.02938813 -.00004472  00000-0 -26327-3 0  9996,2 54199  53.2171  70.8796 0001116 109.5510 250.5602 15.08813148 86560,6917.962,95.439,540.6,539.055,0.0
54199.0,STARLINK-5244,PAYLOAD,2024-05-21 00:33:07,15.08828951,0.0001002,53.2174,66.4222,81.6712,278.4394,0.00039257,5.964e-05,0.0,0 STARLINK-5244,1 54199U 22141AU  24142.02299966  .00005964  00000-0  39257-3 0  9997,2 54199  53.2174  66.4222 0001002  81.6712 278.4394 15.08828951 86943,6917.914,95.438,540.472,539.086,0.0
54199.0,STARLINK-5244,PAYLOAD,2024-05-21 22:48:30,15.08848594,9.8e-05,53.2175,62.2611,80.8985,279.2118,0.0005025,7.72e-05,0.0,0 STARLINK-5244,1 54199U 22141AU  24142.95035653  .00007720  00000-0  50250-3 0  9998,2 54199  53.2175  62.2611 0000980  80.8985 279.2118 15.08848594 86855,6917.854,95.437,540.397,539.041,0.0
54199.0,STARLINK-5244,PAYLOAD,2024-05-22 03:34:39,15.08862944,9.09e-05,53.2172,61.3662,82.7649,277.3446,0.00073744,0.00011475,0.0,0 STARLINK-5244,1 54199U 22141AU  24143.14907185  .00011475  00000-0  73744-3 0  9993,2 54199  53.2172  61.3662 0000909  82.7649 277.3446 15.08862944 87115,6917.81,95.436,540.304,539.046,0.0
54199.0,STARLINK-5244,PAYLOAD,2024-05-23 03:25:26,15.08856735,0.000107,53.2175,56.9088,90.9945,269.117,0.00062772,9.721e-05,0.0,0 STARLINK-5244,1 54199U 22141AU  24144.14267056  .00009721  00000-0  62772-3 0  9990,2 54199  53.2175  56.9088 0001070  90.9945 269.1170 15.08856735 87260,6917.829,95.436,540.434,538.954,0.0
54199.0,STARLINK-5244,PAYLOAD,2024-05-24 03:16:13,15.08856829,0.0001303,53.2178,52.4446,112.3031,247.81,0.0012852,0.00020235,0.0,0 STARLINK-5244,1 54199U 22141AU  24145.13627028  .00020235  00000-0  12852-2 0  9995,2 54199  53.2178  52.4446 0001303 112.3031 247.8100 15.08856829 87413,6917.829,95.436,540.595,538.793,0.0
54199.0,STARLINK-5244,PAYLOAD,2024-05-24 22:20:51,15.08836337,9.24e-05,53.2172,48.8789,112.7381,247.3709,0.00080319,0.00012517,0.0,0 STARLINK-5244,1 54199U 22141AU  24145.93115562  .00012517  00000-0  80319-3 0  9996,2 54199  53.2172  48.8789 0000924 112.7381 247.3709 15.08836337 87306,6917.892,95.438,540.396,539.117,0.0
54199.0,STARLINK-5244,PAYLOAD,2024-05-24 23:56:15,15.08835215,0.0001121,53.2169,48.5828,87.586,272.5261,0.00071846,0.00011163,0.0,0 STARLINK-5244,1 54199U 22141AU  24145.99739745  .00011163  00000-0  71846-3 0  9998,2 54199  53.2169  48.5828 0001121  87.5860 272.5261 15.08835215 87547,6917.895,95.438,540.536,538.985,0.0
54199.0,STARLINK-5244,PAYLOAD,2024-05-25 11:03:57,15.08841877,0.0001618,53.2175,46.5052,55.7963,304.3183,0.00056848,8.771e-05,0.0,0 STARLINK-5244,1 54199U 22141AU  24146.46108028  .00008771  00000-0  56848-3 0  9991,2 54199  53.2175  46.5052 0001618  55.7963 304.3183 15.08841877 87383,6917.875,95.437,540.859,538.62,0.0
54199.0,STARLINK-5244,PAYLOAD,2024-05-25 20:36:16,15.08831785,0.0001303,53.2182,44.7163,98.9919,261.1221,0.00073567,0.00011437,0.0,0 STARLINK-5244,1 54199U 22141AU  24146.85852087  .00011437  00000-0  73567-3 0  9995,2 54199  53.2182  44.7163 0001303  98.9919 261.1221 15.08831785 87677,6917.905,95.438,540.672,538.869,0.0
54199.0,STARLINK-5244,PAYLOAD,2024-05-25 23:47:02,15.08840389,0.0001125,53.2174,44.1216,98.4982,261.6138,0.00022304,3.264e-05,0.0,0 STARLINK-5244,1 54199U 22141AU  24146.99099704  .00003264  00000-0  22304-3 0  9991,2 54199  53.2174  44.1216 0001125  98.4982 261.6138 15.08840389 87467,6917.879,95.438,540.522,538.966,0.0
54199.0,STARLINK-5244,PAYLOAD,2024-05-26 23:37:49,15.08848973,0.0001216,53.2173,39.6618,88.0381,272.0751,0.00034881,5.269e-05,0.0,0 STARLINK-5244,1 54199U 22141AU  24147.98459810  .00005269  00000-0  34881-3 0  9999,2 54199  53.2173  39.6618 0001216  88.0381 272.0751 15.08848973 87846,6917.853,95.437,540.559,538.877,0.0
54199.0,STARLINK-5244,PAYLOAD,2024-05-28 20:08:37,15.08841521,0.0001431,53.2203,31.3451,114.359,245.7551,5.5696e-05,5.99e-06,0.0,0 STARLINK-5244,1 54199U 22141AU  24149.83931729  .00000599  00000-0  55696-4 0  9998,2 54199  53.2203  31.3451 0001431 114.3590 245.7551 15.08841521 88127,6917.876,95.437,540.731,538.751,0.0
54199.0,STARLINK-5244,PAYLOAD,2024-05-28 21:44:00,15.08841993,0.0001473,53.2198,31.0454,115.2231,244.8914,5.8455e-05,6.43e-06,0.0,0 STARLINK-5244,1 54199U 22141AU  24149.90555673  .00000643  00000-0  58455-4 0  9992,2 54199  53.2198  31.0454 0001473 115.2231 244.8914 15.08841993 87909,6917.874,95.437,540.758,538.72,0.0
54199.0,STARLINK-5244,PAYLOAD,2024-05-29 21:34:47,15.08842107,0.0001388,53.2171,26.5729,49.7795,310.3319,0.00011565,1.553e-05,0.0,0 STARLINK-5244,1 54199U 22141AU  24150.89915964  .00001553  00000-0  11565-3 0  9996,2 54199  53.2171  26.5729 0001388  49.7795 310.3319 15.08842107 88058,6917.874,95.437,540.699,538.779,0.0
54199.0,STARLINK-5244,PAYLOAD,2024-05-30 00:45:33,15.08846392,0.0001327,53.2186,25.9816,78.1133,282.0008,0.00017495,2.498e-05,0.0,0 STARLINK-5244,1 54199U 22141AU  24151.03163696  .00002498  00000-0  17495-3 0  9997,2 54199  53.2186  25.9816 0001327  78.1133 282.0008 15.08846392 88307,6917.861,95.437,540.644,538.808,0.0
54199.0,STARLINK-5244,PAYLOAD,2024-05-30 21:25:34,15.08847713,0.0001409,53.2188,22.1155,80.1801,279.935,0.00020367,2.956e-05,0.0,0 STARLINK-5244,1 54199U 22141AU  24151.89275649  .00002956  00000-0  20367-3 0  9994,2 54199  53.2188  22.1155 0001409  80.1801 279.9350 15.08847713 88202,6917.857,95.437,540.697,538.747,0.0
54199.0,STARLINK-5244,PAYLOAD,2024-05-31 00:36:20,15.088418,0.0001533,53.2193,21.5209,82.8987,277.218,0.00056241,8.675e-05,0.0,0 STARLINK-5244,1 54199U 22141AU  24152.02524042  .00008675  00000-0  56241-3 0  9998,2 54199  53.2193  21.5209 0001533  82.8987 277.2180 15.08841800 88453,6917.875,95.437,540.8,538.679,0.0
54199.0,STARLINK-5244,PAYLOAD,2024-05-31 21:16:21,15.08838552,0.0001186,53.2186,17.6547,92.9379,267.1749,6.9186e-05,8.13e-06,0.0,0 STARLINK-5244,1 54199U 22141AU  24152.88636045  .00000813  00000-0  69186-4 0  9998,2 54199  53.2186  17.6547 0001186  92.9379 267.1749 15.08838552 88580,6917.885,95.438,540.57,538.929,0.0
